CCSDS_OMM_VERS = 2.0
CREATION_DATE  = 
ORIGINATOR     = 

OBJECT_NAME    = CYGNUS NG-23
OBJECT_ID      = 2025-208A
CENTER_NAME    = EARTH
REF_FRAME      = TEME
TIME_SYSTEM    = UTC
MEAN_ELEMENT_THEORY = SGP/SGP4

EPOCH          = 2026-01-03T05:02:41.800128
MEAN_MOTION    = 15.49059586
ECCENTRICITY   = .00075493
INCLINATION    = 51.6329
RA_OF_ASC_NODE = 36.1624
ARG_OF_PERICENTER = 334.7101
MEAN_ANOMALY   = 25.3517

EPHEMERIS_TYPE = 0
CLASSIFICATION_TYPE = U
NORAD_CAT_ID   = 65616
ELEMENT_SET_NO = 999
REV_AT_EPOCH   = 22
BSTAR          = .28953765E-3
MEAN_MOTION_DOT = .15578E-3
MEAN_MOTION_DDOT = 0

CCSDS_OMM_VERS = 2.0
CREATION_DATE  = 
ORIGINATOR     = 

OBJECT_NAME    = DRAGONFLY
OBJECT_ID      = 1998-067XH
CENTER_NAME    = EARTH
REF_FRAME      = TEME
TIME_SYSTEM    = UTC
MEAN_ELEMENT_THEORY = SGP/SGP4

EPOCH          = 2026-01-03T07:09:06.926112
MEAN_MOTION    = 15.81463898
ECCENTRICITY   = .00087519
INCLINATION    = 51.6232
RA_OF_ASC_NODE = 24.7040
ARG_OF_PERICENTER = 41.4446
MEAN_ANOMALY   = 318.7218

EPHEMERIS_TYPE = 0
CLASSIFICATION_TYPE = U
NORAD_CAT_ID   = 65729
ELEMENT_SET_NO = 999
REV_AT_EPOCH   = 1656
BSTAR          = .18084343E-2
MEAN_MOTION_DOT = .384232E-2
MEAN_MOTION_DDOT = 0

CCSDS_OMM_VERS = 2.0
CREATION_DATE  = 
ORIGINATOR     = 

OBJECT_NAME    = 1998-067XK
OBJECT_ID      = 1998-067XK
CENTER_NAME    = EARTH
REF_FRAME      = TEME
TIME_SYSTEM    = UTC
MEAN_ELEMENT_THEORY = SGP/SGP4

EPOCH          = 2026-01-03T06:38:30.749856
MEAN_MOTION    = 15.70717254
ECCENTRICITY   = .00053438
INCLINATION    = 51.6286
RA_OF_ASC_NODE = 27.6068
ARG_OF_PERICENTER = 16.8104
MEAN_ANOMALY   = 343.3070

EPHEMERIS_TYPE = 0
CLASSIFICATION_TYPE = U
NORAD_CAT_ID   = 65731
ELEMENT_SET_NO = 999
REV_AT_EPOCH   = 1652
BSTAR          = .1384002E-2
MEAN_MOTION_DOT = .178442E-2
MEAN_MOTION_DDOT = 0

CCSDS_OMM_VERS = 2.0
CREATION_DATE  = 
ORIGINATOR     = 

OBJECT_NAME    = RSP-03
OBJECT_ID      = 1998-067XL
CENTER_NAME    = EARTH
REF_FRAME      = TEME
TIME_SYSTEM    = UTC
MEAN_ELEMENT_THEORY = SGP/SGP4

EPOCH          = 2026-01-03T07:04:52.271616
MEAN_MOTION    = 15.75467795
ECCENTRICITY   = .00064437
INCLINATION    = 51.6255
RA_OF_ASC_NODE = 26.2072
ARG_OF_PERICENTER = 23.9890
MEAN_ANOMALY   = 336.1408

EPHEMERIS_TYPE = 0
CLASSIFICATION_TYPE = U
NORAD_CAT_ID   = 65732
ELEMENT_SET_NO = 999
REV_AT_EPOCH   = 1655
BSTAR          = .15841483E-2
MEAN_MOTION_DOT = .252732E-2
MEAN_MOTION_DDOT = 0

CCSDS_OMM_VERS = 2.0
CREATION_DATE  = 
ORIGINATOR     = 

OBJECT_NAME    = GHS-01
OBJECT_ID      = 1998-067XM
CENTER_NAME    = EARTH
REF_FRAME      = TEME
TIME_SYSTEM    = UTC
MEAN_ELEMENT_THEORY = SGP/SGP4

EPOCH          = 2026-01-02T10:28:56.152992
MEAN_MOTION    = 15.87073258
ECCENTRICITY   = .00096481
INCLINATION    = 51.6261
RA_OF_ASC_NODE = 27.9593
ARG_OF_PERICENTER = 41.4531
MEAN_ANOMALY   = 318.7204

EPHEMERIS_TYPE = 0
CLASSIFICATION_TYPE = U
NORAD_CAT_ID   = 65733
ELEMENT_SET_NO = 999
REV_AT_EPOCH   = 1645
BSTAR          = .18981522E-2
MEAN_MOTION_DOT = .536437E-2
MEAN_MOTION_DDOT = 0

CCSDS_OMM_VERS = 2.0
CREATION_DATE  = 
ORIGINATOR     = 

OBJECT_NAME    = YOTSUBA-KULOVER
OBJECT_ID      = 1998-067XN
CENTER_NAME    = EARTH
REF_FRAME      = TEME
TIME_SYSTEM    = UTC
MEAN_ELEMENT_THEORY = SGP/SGP4

EPOCH          = 2026-01-03T06:53:48.578784
MEAN_MOTION    = 15.62875396
ECCENTRICITY   = .00035339
INCLINATION    = 51.6291
RA_OF_ASC_NODE = 31.4319
ARG_OF_PERICENTER = 46.8072
MEAN_ANOMALY   = 313.3217

EPHEMERIS_TYPE = 0
CLASSIFICATION_TYPE = U
NORAD_CAT_ID   = 65941
ELEMENT_SET_NO = 999
REV_AT_EPOCH   = 1322
BSTAR          = .13154417E-2
MEAN_MOTION_DOT = .122515E-2
MEAN_MOTION_DDOT = 0

CCSDS_OMM_VERS = 2.0
CREATION_DATE  = 
ORIGINATOR     = 

OBJECT_NAME    = BOTAN
OBJECT_ID      = 1998-067XP
CENTER_NAME    = EARTH
REF_FRAME      = TEME
TIME_SYSTEM    = UTC
MEAN_ELEMENT_THEORY = SGP/SGP4

EPOCH          = 2026-01-03T02:32:54.698496
MEAN_MOTION    = 15.68280980
ECCENTRICITY   = .0004417
INCLINATION    = 51.6272
RA_OF_ASC_NODE = 30.9665
ARG_OF_PERICENTER = 35.2336
MEAN_ANOMALY   = 324.8952

EPHEMERIS_TYPE = 0
CLASSIFICATION_TYPE = U
NORAD_CAT_ID   = 65942
ELEMENT_SET_NO = 999
REV_AT_EPOCH   = 1321
BSTAR          = .15860644E-2
MEAN_MOTION_DOT = .185038E-2
MEAN_MOTION_DDOT = 0

CCSDS_OMM_VERS = 2.0
CREATION_DATE  = 
ORIGINATOR     = 

OBJECT_NAME    = E-KAGAKU-1
OBJECT_ID      = 1998-067XQ
CENTER_NAME    = EARTH
REF_FRAME      = TEME
TIME_SYSTEM    = UTC
MEAN_ELEMENT_THEORY = SGP/SGP4

EPOCH          = 2026-01-03T02:17:28.101696
MEAN_MOTION    = 15.62853332
ECCENTRICITY   = .00021793
INCLINATION    = 51.6298
RA_OF_ASC_NODE = 32.4065
ARG_OF_PERICENTER = 34.9595
MEAN_ANOMALY   = 325.1542

EPHEMERIS_TYPE = 0
CLASSIFICATION_TYPE = U
NORAD_CAT_ID   = 65943
ELEMENT_SET_NO = 999
REV_AT_EPOCH   = 1319
BSTAR          = .12174142E-2
MEAN_MOTION_DOT = .113099E-2
MEAN_MOTION_DDOT = 0

CCSDS_OMM_VERS = 2.0
CREATION_DATE  = 
ORIGINATOR     = 

OBJECT_NAME    = HRC MONOBLOCK CAMERA
OBJECT_ID      = 1998-067XR
CENTER_NAME    = EARTH
REF_FRAME      = TEME
TIME_SYSTEM    = UTC
MEAN_ELEMENT_THEORY = SGP/SGP4

EPOCH          = 2026-01-03T07:26:30.016032
MEAN_MOTION    = 15.55813884
ECCENTRICITY   = .00014439
INCLINATION    = 51.6308
RA_OF_ASC_NODE = 33.8309
ARG_OF_PERICENTER = 302.6258
MEAN_ANOMALY   = 57.4594

EPHEMERIS_TYPE = 0
CLASSIFICATION_TYPE = U
NORAD_CAT_ID   = 66052
ELEMENT_SET_NO = 999
REV_AT_EPOCH   = 1219
BSTAR          = .73284148E-3
MEAN_MOTION_DOT = .51455E-3
MEAN_MOTION_DDOT = 0

CCSDS_OMM_VERS = 2.0
CREATION_DATE  = 
ORIGINATOR     = 

OBJECT_NAME    = HTV-X1
OBJECT_ID      = 2025-241A
CENTER_NAME    = EARTH
REF_FRAME      = TEME
TIME_SYSTEM    = UTC
MEAN_ELEMENT_THEORY = SGP/SGP4

EPOCH          = 2026-01-03T05:02:41.800128
MEAN_MOTION    = 15.49059586
ECCENTRICITY   = .00075493
INCLINATION    = 51.6329
RA_OF_ASC_NODE = 36.1624
ARG_OF_PERICENTER = 334.7101
MEAN_ANOMALY   = 25.3517

EPHEMERIS_TYPE = 0
CLASSIFICATION_TYPE = U
NORAD_CAT_ID   = 66174
ELEMENT_SET_NO = 999
REV_AT_EPOCH   = 51
BSTAR          = .28953765E-3
MEAN_MOTION_DOT = .15578E-3
MEAN_MOTION_DDOT = 0

CCSDS_OMM_VERS = 2.0
CREATION_DATE  = 
ORIGINATOR     = 

OBJECT_NAME    = SZ-21 MODULE
OBJECT_ID      = 2025-246C
CENTER_NAME    = EARTH
REF_FRAME      = TEME
TIME_SYSTEM    = UTC
MEAN_ELEMENT_THEORY = SGP/SGP4

EPOCH          = 2026-01-03T00:10:39.879264
MEAN_MOTION    = 15.63793066
ECCENTRICITY   = .00023233
INCLINATION    = 41.4755
RA_OF_ASC_NODE = 246.1963
ARG_OF_PERICENTER = 25.4667
MEAN_ANOMALY   = 334.6288

EPHEMERIS_TYPE = 0
CLASSIFICATION_TYPE = U
NORAD_CAT_ID   = 66515
ELEMENT_SET_NO = 999
REV_AT_EPOCH   = 777
BSTAR          = .42307771E-3
MEAN_MOTION_DOT = .40642E-3
MEAN_MOTION_DDOT = 0

CCSDS_OMM_VERS = 2.0
CREATION_DATE  = 
ORIGINATOR     = 

OBJECT_NAME    = SHENZHOU-22
OBJECT_ID      = 2025-272A
CENTER_NAME    = EARTH
REF_FRAME      = TEME
TIME_SYSTEM    = UTC
MEAN_ELEMENT_THEORY = SGP/SGP4

EPOCH          = 2026-01-03T02:27:16.953984
MEAN_MOTION    = 15.60118747
ECCENTRICITY   = .00103492
INCLINATION    = 41.4661
RA_OF_ASC_NODE = 246.9310
ARG_OF_PERICENTER = 209.1942
MEAN_ANOMALY   = 150.8319

EPHEMERIS_TYPE = 0
CLASSIFICATION_TYPE = U
NORAD_CAT_ID   = 66645
ELEMENT_SET_NO = 999
REV_AT_EPOCH   = 26733
BSTAR          = .38473373E-3
MEAN_MOTION_DOT = .32013E-3
MEAN_MOTION_DDOT = 0

